{
"type": "FeatureCollection",
"name": "Prispevna_povrsina_Cerknisko",
"crs": { "type": "name", "properties": { "name": "urn:ogc:def:crs:EPSG::3794" } },
"features": [
{ "type": "Feature", "properties": { "ID_REG_PPVTPV": 265169, "PPVTPV_ID": "PPSI141VT2", "PPVTPV_IME": "Prispevno območje VTJ Cerkniško jezero", "VERZIJA": "v2-0", "DATP_ZAC": "2017-09-05T02:00:00", "DATP_KON": null, "RAZVOJ": "noChange", "JEZIK": "slv", "DAT_ZAC": "2005-07-19T02:00:00", "DAT_KON": null, "VTPV_ID": "SI141VT2", "VTPV_IME": "VTJ Cerkniško jezero", "VO_ID": "SIRBD1", "VO_IME": "Vodno območje Donave", "VOADM_ID": "SIRBD1", "VOADM_IME": "Vodno območje Donave", "PVDJ_ID": "3", "PVDJ_IME": "Porečje Save", "TIP_ID": "DP", "TIP_IME": "Hidroekoregija Dinaridi, ki predstavlja ekoregijo 5. Dinarski zahodni Balkan po Illiesu; nadmorska višina 200 do 800 m n.m.; povprečna globina 3 do 15 m; velikost površine 10 do 100 km2; geološka podlaga apnenčasta, < 1 leto zadrževalni čas, presihajoče", "VRSTA_ID": "J", "VRSTA_IME": "Jezero", "KOL_VRED": 133.06441569, "KOL_ENOTA": "km2", "KOL_OPIS": "Površina prispevnega območja vodnega telesa površinskih voda", "POVRSINSKA": "Cerkniško jezero", "OBJECTID": 3, "SHAPE.AREA": 0.0, "SHAPE.LEN": 0.0, "pov": 133086737, "pov_ha": 13309, "pov_km2": 133 }, "geometry": { "type": "MultiPolygon", "coordinates": [ [ [ [ 462276.660000000149012, 75108.019999999552965 ], [ 462387.28000000026077, 75020.779999999329448 ], [ 462387.459999999962747, 74981.359999999403954 ], [ 462423.959999999962747, 74942.109999999403954 ], [ 462461.570000000298023, 74937.189999999478459 ], [ 462637.459999999962747, 74927.169999999925494 ], [ 462726.740000000223517, 74908.5 ], [ 462909.580000000074506, 75047.300000000745058 ], [ 462937.049999999813735, 75031.529999999329448 ], [ 463028.179999999701977, 74753.439999999478459 ], [ 463154.209999999962747, 74637.660000000149012 ], [ 463241.040000000037253, 74599.910000000149012 ], [ 463236.200000000186265, 74406.599999999627471 ], [ 463268.540000000037253, 74301.839999999850988 ], [ 463367.910000000149012, 74306.740000000223517 ], [ 463512.099999999627471, 74538.179999999701977 ], [ 463622.540000000037253, 74627.060000000521541 ], [ 463676.200000000186265, 74733.490000000223517 ], [ 463707.490000000223517, 74719.640000000596046 ], [ 463765.980000000447035, 74607.369999999180436 ], [ 463788.360000000335276, 74590.300000000745058 ], [ 464159.21999999973923, 74576.080000000074506 ], [ 464175.919999999925494, 74548.820000000298023 ], [ 464133.28000000026077, 74398.580000000074506 ], [ 463973.46999999973923, 74240.179999999701977 ], [ 463966.370000000111759, 74121.880000000819564 ], [ 464147.950000000186265, 73846.119999999180436 ], [ 464448.410000000149012, 73624.96000000089407 ], [ 464519.21999999973923, 73605.560000000521541 ], [ 464773.870000000111759, 73648.679999999701977 ], [ 464807.700000000186265, 73635.480000000447035 ], [ 464901.360000000335276, 73493.900000000372529 ], [ 464975.660000000149012, 73408.609999999403954 ], [ 464957.120000000111759, 73285.179999999701977 ], [ 464876.46999999973923, 73228.230000000447035 ], [ 464870.240000000223517, 73198.949999999254942 ], [ 464922.349999999627471, 73089.199999999254942 ], [ 465025.480000000447035, 72969.5 ], [ 465067.370000000111759, 72864.779999999329448 ], [ 465089.660000000149012, 72730.720000000670552 ], [ 465079.709999999962747, 72679.169999999925494 ], [ 464999.809999999590218, 72597.419999999925494 ], [ 464918.309999999590218, 72588.800000000745058 ], [ 464832.559999999590218, 72529.279999999329448 ], [ 464799.190000000409782, 72443.28999999910593 ], [ 464798.700000000186265, 72274.800000000745058 ], [ 464897.179999999701977, 72196.410000000149012 ], [ 464962.509999999776483, 72121.050000000745058 ], [ 464955.059999999590218, 71941.699999999254942 ], [ 464977.740000000223517, 71858.519999999552965 ], [ 465060.040000000037253, 71835.369999999180436 ], [ 465090.099999999627471, 71810.71000000089407 ], [ 465147.559999999590218, 71647.560000000521541 ], [ 465314.519999999552965, 71362.830000000074506 ], [ 465313.629999999888241, 71280.179999999701977 ], [ 465266.990000000223517, 71169.330000000074506 ], [ 465265.389999999664724, 71101.929999999701977 ], [ 465305.230000000447035, 71027.089999999850988 ], [ 465393.839999999850988, 71016.679999999701977 ], [ 465552.290000000037253, 71058.730000000447035 ], [ 465652.169999999925494, 71092.869999999180436 ], [ 465618.910000000149012, 70948.230000000447035 ], [ 465629.200000000186265, 70822.560000000521541 ], [ 465054.809999999590218, 70348.179999999701977 ], [ 465019.330000000074506, 70303.509999999776483 ], [ 464984.290000000037253, 70168.560000000521541 ], [ 465051.410000000149012, 70118.640000000596046 ], [ 465200.589999999850988, 69960.349999999627471 ], [ 465435.660000000149012, 69825.990000000223517 ], [ 465582.009999999776483, 69730.640000000596046 ], [ 465685.099999999627471, 69619.21000000089407 ], [ 465736.389999999664724, 69546.96000000089407 ], [ 465736.599999999627471, 69505.630000000819564 ], [ 465604.059999999590218, 69372.779999999329448 ], [ 465454.669999999925494, 69297.720000000670552 ], [ 465449.809999999590218, 69248.740000000223517 ], [ 465582.700000000186265, 69029.990000000223517 ], [ 465640.309999999590218, 68973.029999999329448 ], [ 465705.440000000409782, 68940.259999999776483 ], [ 465821.440000000409782, 68931.880000000819564 ], [ 466083.830000000074506, 68815.449999999254942 ], [ 466197.179999999701977, 68690.71000000089407 ], [ 466189.190000000409782, 68625.810000000521541 ], [ 466134.860000000335276, 68527.019999999552965 ], [ 466124.509999999776483, 68424.609999999403954 ], [ 466177.410000000149012, 68281.800000000745058 ], [ 466171.299999999813735, 68087.220000000670552 ], [ 466209.660000000149012, 67920.800000000745058 ], [ 466214.389999999664724, 67855.050000000745058 ], [ 466207.25, 67699.25 ], [ 466220.740000000223517, 67602.349999999627471 ], [ 466279.839999999850988, 67514.550000000745058 ], [ 466318.070000000298023, 67421.630000000819564 ], [ 466327.78000000026077, 67304.880000000819564 ], [ 466428.870000000111759, 66881.880000000819564 ], [ 466401.639999999664724, 66688.869999999180436 ], [ 466315.900000000372529, 66472.349999999627471 ], [ 466184.900000000372529, 66405.78999999910593 ], [ 465971.269999999552965, 66424.990000000223517 ], [ 465646.299999999813735, 66586.939999999478459 ], [ 465488.509999999776483, 66632.740000000223517 ], [ 465334.120000000111759, 66653.849999999627471 ], [ 465219.669999999925494, 66719.509999999776483 ], [ 464815.379999999888241, 67170.269999999552965 ], [ 464715.610000000335276, 67235.769999999552965 ], [ 464581.179999999701977, 67251.169999999925494 ], [ 464358.950000000186265, 67223.009999999776483 ], [ 464068.610000000335276, 67172.939999999478459 ], [ 464039.53000000026077, 67071.480000000447035 ], [ 463973.009999999776483, 66946.570000000298023 ], [ 463976.820000000298023, 66703.029999999329448 ], [ 463592.849999999627471, 66709.480000000447035 ], [ 463128.690000000409782, 66291.740000000223517 ], [ 462540.759999999776483, 66059.669999999925494 ], [ 461426.790000000037253, 66833.259999999776483 ], [ 460985.849999999627471, 66902.890000000596046 ], [ 460583.580000000074506, 67073.080000000074506 ], [ 458889.440000000409782, 68187.060000000521541 ], [ 458077.150000000372529, 67831.220000000670552 ], [ 457883.740000000223517, 67018.96000000089407 ], [ 456769.759999999776483, 66624.439999999478459 ], [ 456560.870000000111759, 65827.650000000372529 ], [ 456367.450000000186265, 64791.03999999910593 ], [ 455895.570000000298023, 65162.369999999180436 ], [ 455593.860000000335276, 64582.179999999701977 ], [ 455346.299999999813735, 64195.400000000372529 ], [ 455121.929999999701977, 62965.390000000596046 ], [ 455482.799999999813735, 62690.240000000223517 ], [ 454551.879999999888241, 63243.320000000298023 ], [ 453771.929999999701977, 63645.560000000521541 ], [ 453092.620000000111759, 63947.25 ], [ 451532.709999999962747, 64575.759999999776483 ], [ 450981.990000000223517, 64759.369999999180436 ], [ 450161.450000000186265, 65099.28999999910593 ], [ 449562.429999999701977, 65441.310000000521541 ], [ 449091.769999999552965, 66039.830000000074506 ], [ 448749.490000000223517, 67151.369999999180436 ], [ 448603.919999999925494, 67974.310000000521541 ], [ 448452.820000000298023, 68440.009999999776483 ], [ 448069.290000000037253, 68925.339999999850988 ], [ 447718.259999999776483, 69222.109999999403954 ], [ 446827.209999999962747, 70112.449999999254942 ], [ 446692.209999999962747, 70463.169999999925494 ], [ 446773.21999999973923, 70948.800000000745058 ], [ 447016.25, 71380.449999999254942 ], [ 447151.259999999776483, 71542.339999999850988 ], [ 447305.650000000372529, 71684.810000000521541 ], [ 448042.320000000298023, 72189.830000000074506 ], [ 448043.099999999627471, 71957.910000000149012 ], [ 448393.120000000111759, 71655.320000000298023 ], [ 448397.75, 71651.320000000298023 ], [ 449840.419999999925494, 72150.220000000670552 ], [ 450862.389999999664724, 72879.679999999701977 ], [ 450915.839999999850988, 72899.599999999627471 ], [ 450978.209999999962747, 72916.380000000819564 ], [ 451018.940000000409782, 72931.160000000149012 ], [ 451046.009999999776483, 72936.849999999627471 ], [ 451172.950000000186265, 72975.939999999478459 ], [ 451228.299999999813735, 73001.380000000819564 ], [ 451289.099999999627471, 73038.380000000819564 ], [ 451357.71999999973923, 73067.28999999910593 ], [ 451415.21999999973923, 73082.599999999627471 ], [ 451514.129999999888241, 73094.400000000372529 ], [ 451627.929999999701977, 73095.089999999850988 ], [ 451734.889999999664724, 73089.259999999776483 ], [ 451862.589999999850988, 73093.439999999478459 ], [ 451908.46999999973923, 73089.400000000372529 ], [ 451973.629999999888241, 73076.25 ], [ 451999.730000000447035, 73048.230000000447035 ], [ 452035.959999999962747, 73021.699999999254942 ], [ 452066.889999999664724, 73004.599999999627471 ], [ 452141.809999999590218, 73009.490000000223517 ], [ 452173.929999999701977, 73022.310000000521541 ], [ 452298.230000000447035, 73035.949999999254942 ], [ 452362.5, 73033.599999999627471 ], [ 452471.46999999973923, 73023.359999999403954 ], [ 452526.700000000186265, 73000.449999999254942 ], [ 452611.200000000186265, 72976.300000000745058 ], [ 452673.599999999627471, 72945.919999999925494 ], [ 452848.290000000037253, 72872.300000000745058 ], [ 452934.620000000111759, 72824.660000000149012 ], [ 453043.690000000409782, 72810.609999999403954 ], [ 453078.650000000372529, 72784.050000000745058 ], [ 453139.269999999552965, 72774.609999999403954 ], [ 453184.5, 72771.189999999478459 ], [ 453235.679999999701977, 72758.369999999180436 ], [ 453304.940000000409782, 72733.230000000447035 ], [ 453543.230000000447035, 72685.869999999180436 ], [ 453702.190000000409782, 72605.529999999329448 ], [ 453753.21999999973923, 72598.429999999701977 ], [ 453810.269999999552965, 72606.089999999850988 ], [ 453857.389999999664724, 72602.720000000670552 ], [ 453885.459999999962747, 72572.189999999478459 ], [ 453933.900000000372529, 72460.070000000298023 ], [ 453971.46999999973923, 72404.320000000298023 ], [ 454013.559999999590218, 72398.919999999925494 ], [ 454034.879999999888241, 72411.490000000223517 ], [ 454099.75, 72464.490000000223517 ], [ 454183.519999999552965, 72551.630000000819564 ], [ 454214.730000000447035, 72549.160000000149012 ], [ 454258.299999999813735, 72535.529999999329448 ], [ 454289.860000000335276, 72518.439999999478459 ], [ 454339.03000000026077, 72482.669999999925494 ], [ 454471.03000000026077, 72412.529999999329448 ], [ 454560.910000000149012, 72376.419999999925494 ], [ 454645.21999999973923, 72333.820000000298023 ], [ 454724.230000000447035, 72353.429999999701977 ], [ 454772.759999999776483, 72398.429999999701977 ], [ 454800.46999999973923, 72436.589999999850988 ], [ 454872.059999999590218, 72474.470000000670552 ], [ 454892.599999999627471, 72520.099999999627471 ], [ 454900.509999999776483, 72561.630000000819564 ], [ 454949.830000000074506, 72600.279999999329448 ], [ 454985.580000000074506, 72620.820000000298023 ], [ 455163.360000000335276, 72685.300000000745058 ], [ 455226.179999999701977, 72717.269999999552965 ], [ 455269.870000000111759, 72751.980000000447035 ], [ 455304.540000000037253, 72791.570000000298023 ], [ 455339.389999999664724, 72823.53999999910593 ], [ 455422.299999999813735, 72920.21000000089407 ], [ 455458.650000000372529, 72969.380000000819564 ], [ 455486.599999999627471, 73024.080000000074506 ], [ 455525.46999999973923, 72993.800000000745058 ], [ 455569.169999999925494, 72974.449999999254942 ], [ 455629.839999999850988, 72989.820000000298023 ], [ 455671.330000000074506, 73009.849999999627471 ], [ 455710.120000000111759, 73036.820000000298023 ], [ 455781.620000000111759, 73051.169999999925494 ], [ 455833.370000000111759, 73040.910000000149012 ], [ 455972.150000000372529, 72953.75 ], [ 456027.929999999701977, 72934.019999999552965 ], [ 456051.820000000298023, 72918.669999999925494 ], [ 456107.589999999850988, 72899.580000000074506 ], [ 456222.769999999552965, 72869.140000000596046 ], [ 456295.5, 72858.71000000089407 ], [ 456332.129999999888241, 72842.369999999180436 ], [ 456354.379999999888241, 72949.740000000223517 ], [ 456370.209999999962747, 72979.359999999403954 ], [ 456403.650000000372529, 73017.019999999552965 ], [ 456446.0, 73027.529999999329448 ], [ 456475.599999999627471, 73039.650000000372529 ], [ 456524.990000000223517, 73048.410000000149012 ], [ 456607.459999999962747, 73056.660000000149012 ], [ 456726.040000000037253, 73096.890000000596046 ], [ 456742.589999999850988, 73096.0 ], [ 456775.709999999962747, 73120.28999999910593 ], [ 456797.179999999701977, 73126.509999999776483 ], [ 456836.950000000186265, 73192.28999999910593 ], [ 456852.570000000298023, 73230.820000000298023 ], [ 456886.690000000409782, 73293.929999999701977 ], [ 456942.429999999701977, 73382.980000000447035 ], [ 456983.53000000026077, 73419.53999999910593 ], [ 457101.070000000298023, 73504.279999999329448 ], [ 457152.660000000149012, 73553.800000000745058 ], [ 457217.179999999701977, 73594.71000000089407 ], [ 457295.019999999552965, 73637.199999999254942 ], [ 457310.089999999850988, 73671.890000000596046 ], [ 457321.190000000409782, 73713.490000000223517 ], [ 457328.669999999925494, 73773.449999999254942 ], [ 457356.830000000074506, 73872.689999999478459 ], [ 457366.820000000298023, 73880.550000000745058 ], [ 457431.700000000186265, 73879.490000000223517 ], [ 457471.570000000298023, 73887.390000000596046 ], [ 457517.599999999627471, 73876.990000000223517 ], [ 457637.339999999850988, 73868.279999999329448 ], [ 457732.5, 73877.449999999254942 ], [ 457770.28000000026077, 73893.580000000074506 ], [ 457827.259999999776483, 73930.5 ], [ 457845.839999999850988, 73951.279999999329448 ], [ 457892.919999999925494, 74030.589999999850988 ], [ 457921.339999999850988, 74092.300000000745058 ], [ 457963.480000000447035, 74138.429999999701977 ], [ 457979.599999999627471, 74182.679999999701977 ], [ 457983.28000000026077, 74215.21000000089407 ], [ 457966.059999999590218, 74378.28999999910593 ], [ 458031.129999999888241, 74423.029999999329448 ], [ 458062.790000000037253, 74428.839999999850988 ], [ 458120.160000000149012, 74422.519999999552965 ], [ 458167.620000000111759, 74405.150000000372529 ], [ 458282.650000000372529, 74300.279999999329448 ], [ 458323.879999999888241, 74277.689999999478459 ], [ 458366.929999999701977, 74258.949999999254942 ], [ 458399.580000000074506, 74222.78999999910593 ], [ 458438.480000000447035, 74191.240000000223517 ], [ 458466.759999999776483, 74178.529999999329448 ], [ 458573.419999999925494, 74185.419999999925494 ], [ 458648.629999999888241, 74204.310000000521541 ], [ 458702.790000000037253, 74226.529999999329448 ], [ 458738.769999999552965, 74237.529999999329448 ], [ 458768.320000000298023, 74251.570000000298023 ], [ 458815.309999999590218, 74281.259999999776483 ], [ 458866.339999999850988, 74274.160000000149012 ], [ 458940.509999999776483, 74256.769999999552965 ], [ 459014.570000000298023, 74244.470000000670552 ], [ 459071.53000000026077, 74308.740000000223517 ], [ 459117.410000000149012, 74465.630000000819564 ], [ 459129.330000000074506, 74472.259999999776483 ], [ 459169.980000000447035, 74474.46000000089407 ], [ 459303.96999999973923, 74454.619999999180436 ], [ 459340.089999999850988, 74433.179999999701977 ], [ 459370.490000000223517, 74330.820000000298023 ], [ 459387.389999999664724, 74288.589999999850988 ], [ 459414.459999999962747, 74246.589999999850988 ], [ 459547.679999999701977, 74152.310000000521541 ], [ 459582.309999999590218, 74113.019999999552965 ], [ 459747.5, 74011.199999999254942 ], [ 459801.849999999627471, 73971.730000000447035 ], [ 459848.099999999627471, 73925.080000000074506 ], [ 459939.870000000111759, 73862.28999999910593 ], [ 460049.190000000409782, 73810.720000000670552 ], [ 460145.040000000037253, 73790.640000000596046 ], [ 460209.860000000335276, 73792.109999999403954 ], [ 460261.070000000298023, 73804.730000000447035 ], [ 460352.400000000372529, 73867.880000000819564 ], [ 460381.660000000149012, 73893.990000000223517 ], [ 460418.540000000037253, 73920.910000000149012 ], [ 460462.169999999925494, 73931.449999999254942 ], [ 460478.339999999850988, 73946.449999999254942 ], [ 460567.889999999664724, 74004.470000000670552 ], [ 460600.169999999925494, 74010.929999999701977 ], [ 460638.099999999627471, 73993.349999999627471 ], [ 460769.400000000372529, 73954.070000000298023 ], [ 460841.589999999850988, 73930.349999999627471 ], [ 460883.179999999701977, 73893.019999999552965 ], [ 460922.129999999888241, 73875.400000000372529 ], [ 460998.150000000372529, 73830.599999999627471 ], [ 461018.669999999925494, 73802.720000000670552 ], [ 461012.519999999552965, 73753.730000000447035 ], [ 461024.769999999552965, 73723.269999999552965 ], [ 461049.110000000335276, 73694.769999999552965 ], [ 461155.299999999813735, 73602.419999999925494 ], [ 461203.830000000074506, 73577.21000000089407 ], [ 461232.509999999776483, 73576.070000000298023 ], [ 461263.709999999962747, 73580.019999999552965 ], [ 461334.900000000372529, 73616.580000000074506 ], [ 461388.879999999888241, 73653.699999999254942 ], [ 461430.129999999888241, 73687.589999999850988 ], [ 461459.209999999962747, 73736.679999999701977 ], [ 461518.410000000149012, 73886.359999999403954 ], [ 461589.71999999973923, 74034.189999999478459 ], [ 461608.559999999590218, 74094.050000000745058 ], [ 461616.419999999925494, 74183.730000000447035 ], [ 461619.190000000409782, 74273.390000000596046 ], [ 461631.099999999627471, 74316.679999999701977 ], [ 461637.230000000447035, 74368.21000000089407 ], [ 461647.28000000026077, 74398.140000000596046 ], [ 461637.589999999850988, 74426.71000000089407 ], [ 461619.629999999888241, 74453.330000000074506 ], [ 461606.75, 74484.429999999701977 ], [ 461583.669999999925494, 74516.109999999403954 ], [ 461586.730000000447035, 74542.830000000074506 ], [ 461615.950000000186265, 74562.03999999910593 ], [ 461649.46999999973923, 74614.96000000089407 ], [ 461656.389999999664724, 74634.070000000298023 ], [ 461656.25, 74664.589999999850988 ], [ 461660.620000000111759, 74684.96000000089407 ], [ 461673.919999999925494, 74700.279999999329448 ], [ 461684.620000000111759, 74728.939999999478459 ], [ 461706.150000000372529, 74757.640000000596046 ], [ 461730.160000000149012, 74800.990000000223517 ], [ 461742.75, 74834.740000000223517 ], [ 461750.0, 74920.609999999403954 ], [ 461744.110000000335276, 74953.650000000372529 ], [ 461726.009999999776483, 75010.78999999910593 ], [ 461713.629999999888241, 75069.230000000447035 ], [ 461747.919999999925494, 75094.179999999701977 ], [ 461788.040000000037253, 75098.810000000521541 ], [ 461851.799999999813735, 75087.660000000149012 ], [ 461892.570000000298023, 75087.21000000089407 ], [ 461910.389999999664724, 75093.650000000372529 ], [ 461942.730000000447035, 75126.220000000670552 ], [ 461954.740000000223517, 75146.619999999180436 ], [ 461964.089999999850988, 75191.810000000521541 ], [ 461976.129999999888241, 75205.849999999627471 ], [ 461986.78000000026077, 75244.050000000745058 ], [ 461979.679999999701977, 75263.089999999850988 ], [ 461945.709999999962747, 75307.439999999478459 ], [ 461906.519999999552965, 75379.75 ], [ 461845.440000000409782, 75499.630000000819564 ], [ 461895.03000000026077, 75521.480000000447035 ], [ 461981.299999999813735, 75603.259999999776483 ], [ 462090.549999999813735, 75536.990000000223517 ], [ 462149.549999999813735, 75453.970000000670552 ], [ 462211.160000000149012, 75218.990000000223517 ], [ 462276.660000000149012, 75108.019999999552965 ] ] ] ] } }
]
}
